{
    "satellites": [
        {
            "name": "starlink330",
            "title": "Starlink-330 (G6-95) (new)",
            "tle": [
                "1 71075C 25281AE  25341.09770833 -.00759930  00000+0 -11463-2 0  3412",
                "2 71075  43.0033 157.6499 0002087 270.4932 197.5018 16.04358383    13"
            ],
            "stdMag": 5,
            "noradId": "71075",
            "tleUrl": "http://celestrak.org/NORAD/elements/supplemental/sup-gp.php?FILE=starlink&FORMAT=tle",
            "launchDate": "2025-12-02T22:18:50.000Z",
            "active": true,
            "batch": [
                {
                    "noradId": "71075",
                    "tle": [
                        "1 71075C 25281AE  25341.09770833 -.00759930  00000+0 -11463-2 0  3412",
                        "2 71075  43.0033 157.6499 0002087 270.4932 197.5018 16.04358383    13"
                    ]
                },
                {
                    "noradId": "71059",
                    "tle": [
                        "1 71059C 25281N   25341.09284722 -.00750740  00000+0 -12210-2 0  3412",
                        "2 71059  43.0029 157.7058 0002027 269.8151 160.0941 16.03091443    11"
                    ]
                },
                {
                    "noradId": "71073",
                    "tle": [
                        "1 71073C 25281AC  25341.09840278 -.00756450  00000+0 -11510-2 0  3418",
                        "2 71073  43.0031 157.6482 0002085 270.2883 200.6501 16.04210981    16"
                    ]
                },
                {
                    "noradId": "71072",
                    "tle": [
                        "1 71072C 25281AB  25341.09284722 -.00758970  00000+0 -11398-2 0  3416",
                        "2 71072  43.0029 157.6784 0002111 271.5521 169.1909 16.04430768    18"
                    ]
                },
                {
                    "noradId": "71074",
                    "tle": [
                        "1 71074C 25281AD  25341.09493056 -.00761780  00000+0 -11360-2 0  3412",
                        "2 71074  43.0030 157.6623 0002064 271.1803 182.5787 16.04549547    19"
                    ]
                },
                {
                    "noradId": "71070",
                    "tle": [
                        "1 71070C 25281Z   25341.09562500 -.00751070  00000+0 -11587-2 0  3411",
                        "2 71070  43.0031 157.6705 0002108 271.4949 181.4875 16.03976089    10"
                    ]
                },
                {
                    "noradId": "71071",
                    "tle": [
                        "1 71071C 25281AA  25341.09840278 -.00752500  00000+0 -11549-2 0  3410",
                        "2 71071  43.0031 157.6507 0002101 270.6092 199.2553 16.04063053    13"
                    ]
                },
                {
                    "noradId": "71069",
                    "tle": [
                        "1 71069C 25281Y   25341.09701389 -.00748750  00000+0 -11658-2 0  3419",
                        "2 71069  43.0032 157.6647 0002102 271.4199 188.4794 16.03820246    15"
                    ]
                },
                {
                    "noradId": "71068",
                    "tle": [
                        "1 71068C 25281X   25341.09562500 -.00747140  00000+0 -11735-2 0  3416",
                        "2 71068  43.0033 157.6762 0002101 272.1521 178.6248 16.03672670    10"
                    ]
                },
                {
                    "noradId": "71067",
                    "tle": [
                        "1 71067C 25281W   25341.09770833 -.00749280  00000+0 -11844-2 0  3413",
                        "2 71067  43.0033 157.6654 0002135 271.7686 190.1470 16.03567972    17"
                    ]
                },
                {
                    "noradId": "71066",
                    "tle": [
                        "1 71066C 25281V   25341.09840278 -.00749310  00000+0 -11948-2 0  3412",
                        "2 71066  43.0034 157.6636 0002127 271.6899 193.1507 16.03421686    18"
                    ]
                },
                {
                    "noradId": "71065",
                    "tle": [
                        "1 71065C 25281U   25341.09701389 -.00749110  00000+0 -12039-2 0  3410",
                        "2 71065  43.0032 157.6752 0002120 271.6730 184.1124 16.03290100    11"
                    ]
                },
                {
                    "noradId": "71064",
                    "tle": [
                        "1 71064C 25281T   25341.09493056 -.00752130  00000+0 -12150-2 0  3418",
                        "2 71064  43.0032 157.6904 0001732 270.8229 172.0851 16.03208157    15"
                    ]
                },
                {
                    "noradId": "71063",
                    "tle": [
                        "1 71063C 25281S   25341.09701389 -.00750600  00000+0 -12292-2 0  3415",
                        "2 71063  43.0031 157.6816 0002084 273.0913 179.9691 16.02974138    17"
                    ]
                },
                {
                    "noradId": "71062",
                    "tle": [
                        "1 71062C 25281R   25341.08937500 -.00751390  00000+0 -12369-2 0  3411",
                        "2 71062  43.0031 157.7323 0002086 268.5159 139.5255 16.02887456    17"
                    ]
                },
                {
                    "noradId": "71060",
                    "tle": [
                        "1 71060C 25281P   25341.09770833 -.00750800  00000+0 -12483-2 0  3416",
                        "2 71060  43.0030 157.6825 0002008 270.2860 184.7583 16.02718779    10"
                    ]
                },
                {
                    "noradId": "71061",
                    "tle": [
                        "1 71061C 25281Q   25341.09354167 -.00751310  00000+0 -12568-2 0  3416",
                        "2 71061  43.0029 157.7113 0002130 272.4872 157.5542 16.02615203    14"
                    ]
                },
                {
                    "noradId": "71058",
                    "tle": [
                        "1 71058C 25281M   25341.09770833 -.00751350  00000+0 -12669-2 0  3410",
                        "2 71058  43.0028 157.6875 0002134 271.8624 181.2335 16.02480728    11"
                    ]
                },
                {
                    "noradId": "71057",
                    "tle": [
                        "1 71057C 25281L   25341.11437500 -.00749210  00000+0 -12736-2 0  3410",
                        "2 71057  43.0028 157.5845 0001928 269.1224 279.2705 16.02340576    17"
                    ]
                },
                {
                    "noradId": "71056",
                    "tle": [
                        "1 71056C 25281K   25341.09145833 -.00749540  00000+0 -12793-2 0  3410",
                        "2 71056  43.0026 157.7317 0001947 273.8883 141.2751 16.02272523    19"
                    ]
                },
                {
                    "noradId": "71055",
                    "tle": [
                        "1 71055C 25281J   25341.09215278 -.00752130  00000+0 -12907-2 0  3416",
                        "2 71055  43.0026 157.7293 0001994 272.0136 146.3073 16.02182787    10"
                    ]
                },
                {
                    "noradId": "71054",
                    "tle": [
                        "1 71054C 25281H   25341.09006944 -.00753730  00000+0 -13023-2 0  3410",
                        "2 71054  43.0027 157.7449 0001825 270.5906 134.7179 16.02068981    11"
                    ]
                },
                {
                    "noradId": "71053",
                    "tle": [
                        "1 71053C 25281G   25341.09562500 -.00754470  00000+0 -13117-2 0  3410",
                        "2 71053  43.0026 157.7120 0001790 269.3205 167.1876 16.01963614    14"
                    ]
                },
                {
                    "noradId": "71052",
                    "tle": [
                        "1 71052C 25281F   25341.09423611 -.00752940  00000+0 -13188-2 0  3416",
                        "2 71052  43.0026 157.7236 0001820 272.6035 154.8555 16.01833860    19"
                    ]
                },
                {
                    "noradId": "71051",
                    "tle": [
                        "1 71051C 25281E   25341.09701389 -.00751280  00000+0 -13269-2 0  3412",
                        "2 71051  43.0027 157.7087 0001815 271.2189 171.2079 16.01689836    18"
                    ]
                },
                {
                    "noradId": "71050",
                    "tle": [
                        "1 71050C 25281D   25341.09423611 -.00751660  00000+0 -13337-2 0  3418",
                        "2 71050  43.0025 157.7284 0001967 274.2218 151.3478 16.01610701    15"
                    ]
                },
                {
                    "noradId": "71049",
                    "tle": [
                        "1 71049C 25281C   25341.09215278 -.00749260  00000+0 -13362-2 0  3415",
                        "2 71049  43.0025 157.7437 0001909 273.4898 139.2168 16.01520432    16"
                    ]
                },
                {
                    "noradId": "71048",
                    "tle": [
                        "1 71048C 25281B   25341.09631944 -.00748990  00000+0 -13461-2 0  3415",
                        "2 71048  43.0026 157.7196 0001933 274.9664 160.7662 16.01387738    10"
                    ]
                },
                {
                    "noradId": "71047",
                    "tle": [
                        "1 71047C 25281A   25341.09562500 -.00747890  00000+0 -13500-2 0  3417",
                        "2 71047  43.0026 157.7269 0001941 274.1858 156.5621 16.01311162    12"
                    ]
                }
            ]
        }
    ],
    "config": {}
}